STARLINK-34589          
1 64747U 25144Z   26080.81225357  .00012585  00000+0  43625-3 0  9996
2 64747  53.1600 112.1852 0001323  90.3937 269.7216 15.30204923 41743
STARLINK-34536          
1 64748U 25144AA  26080.53044673  .00014932  00000+0  51495-3 0  9998
2 64748  53.1576 126.1123 0001279  86.1833 273.9314 15.30219644 41528
STARLINK-34595          
1 64749U 25144AB  26080.53150260  .00019480  00000+0  66763-3 0  9996
2 64749  53.1580 126.1169 0001279  87.3199 272.7949 15.30223594 41522
STARLINK-34531          
1 64750U 25144AC  26080.84119069  .00015785  00000+0  54364-3 0  9992
2 64750  53.1603 124.5019 0000948  89.8721 270.2388 15.30218098 41574
STARLINK-33965          
1 64755U 25147A   26080.71700234  .00035789  00000+0  12134-2 0  9990
2 64755  53.1578 186.8558 0001021  79.1285 280.9831 15.30234599 40630
STARLINK-34371          
1 64756U 25147B   26080.67384856  .00032993  00000+0  11204-2 0  9995
2 64756  53.1607 187.2939 0001110  97.1665 262.9462 15.30221388 40534
STARLINK-34401          
1 64757U 25147C   26080.88034937 -.00047090  00000+0 -15901-2 0  9995
2 64757  53.1605 186.4505 0001800  87.2247 272.8960 15.30152598 40545
STARLINK-34593          
1 64758U 25147D   26080.65063040  .00033947  00000+0  11520-2 0  9995
2 64758  53.1578 187.1481 0000921  84.6691 275.4415 15.30229770 40588
STARLINK-34598          
1 64759U 25147E   26080.70327932  .00021613  00000+0  73907-3 0  9990
2 64759  53.1579 186.7650 0001081  65.0813 295.0300 15.30228553 40545
STARLINK-34235          
1 64760U 25147F   26080.58954156  .00029089  00000+0  98958-3 0  9990
2 64760  53.1584 187.4824 0001144  71.9907 288.1218 15.30227584 40616
STARLINK-34635          
1 64761U 25147G   26080.70433206  .00050128  00000+0  16911-2 0  9999
2 64761  53.1570 186.7755 0001077 107.4307 252.6812 15.30241384 40598
STARLINK-34638          
1 64762U 25147H   26080.72544096  .00043983  00000+0  14868-2 0  9992
2 64762  53.1586 186.9071 0001011  99.5034 260.6081 15.30233602 40596
STARLINK-34534          
1 64763U 25147J   26080.73283046  .00015917  00000+0  54798-3 0  9992
2 64763  53.1584 186.9480 0001436 101.8375 258.2787 15.30223763 40598
STARLINK-34261          
1 64764U 25147K   26080.72227826  .00025662  00000+0  87484-3 0  9992
2 64764  53.1586 186.8829 0001068  78.0575 282.0545 15.30226638 40631
STARLINK-34566          
1 64765U 25147L   26080.57898501  .00041328  00000+0  13992-2 0  9999
2 64765  53.1587 187.4091 0000988  88.2474 271.8640 15.30213198 40574
STARLINK-34645          
1 64766U 25147M   26080.68651115  .00056363  00000+0  18998-2 0  9996
2 64766  53.1614 187.3717 0001246  74.7896 285.3243 15.30215248 40584
