[{"OBJECT_NAME":"STARLINK-34589","OBJECT_ID":"2025-144Z","EPOCH":"2026-03-21T19:29:38.708448","MEAN_MOTION":15.30204923,"ECCENTRICITY":0.00013238,"INCLINATION":53.16,"RA_OF_ASC_NODE":112.1852,"ARG_OF_PERICENTER":90.3937,"MEAN_ANOMALY":269.7216,"EPHEMERIS_TYPE":0,"CLASSIFICATION_TYPE":"U","NORAD_CAT_ID":64747,"ELEMENT_SET_NO":999,"REV_AT_EPOCH":4174,"BSTAR":0.00043624846,"MEAN_MOTION_DOT":0.00012585,"MEAN_MOTION_DDOT":0},{"OBJECT_NAME":"STARLINK-34536","OBJECT_ID":"2025-144AA","EPOCH":"2026-03-21T12:43:50.597472","MEAN_MOTION":15.30219644,"ECCENTRICITY":0.0001279,"INCLINATION":53.1576,"RA_OF_ASC_NODE":126.1123,"ARG_OF_PERICENTER":86.1833,"MEAN_ANOMALY":273.9314,"EPHEMERIS_TYPE":0,"CLASSIFICATION_TYPE":"U","NORAD_CAT_ID":64748,"ELEMENT_SET_NO":999,"REV_AT_EPOCH":4152,"BSTAR":0.00051495151,"MEAN_MOTION_DOT":0.00014932,"MEAN_MOTION_DDOT":0},{"OBJECT_NAME":"STARLINK-34595","OBJECT_ID":"2025-144AB","EPOCH":"2026-03-21T12:45:21.824640","MEAN_MOTION":15.30223594,"ECCENTRICITY":0.00012792,"INCLINATION":53.158,"RA_OF_ASC_NODE":126.1169,"ARG_OF_PERICENTER":87.3199,"MEAN_ANOMALY":272.7949,"EPHEMERIS_TYPE":0,"CLASSIFICATION_TYPE":"U","NORAD_CAT_ID":64749,"ELEMENT_SET_NO":999,"REV_AT_EPOCH":4152,"BSTAR":0.00066763293,"MEAN_MOTION_DOT":0.0001948,"MEAN_MOTION_DDOT":0},{"OBJECT_NAME":"STARLINK-34531","OBJECT_ID":"2025-144AC","EPOCH":"2026-03-21T20:11:18.875616","MEAN_MOTION":15.30218098,"ECCENTRICITY":9.484e-5,"INCLINATION":53.1603,"RA_OF_ASC_NODE":124.5019,"ARG_OF_PERICENTER":89.8721,"MEAN_ANOMALY":270.2388,"EPHEMERIS_TYPE":0,"CLASSIFICATION_TYPE":"U","NORAD_CAT_ID":64750,"ELEMENT_SET_NO":999,"REV_AT_EPOCH":4157,"BSTAR":0.0005436402,"MEAN_MOTION_DOT":0.00015785,"MEAN_MOTION_DDOT":0},{"OBJECT_NAME":"STARLINK-33965","OBJECT_ID":"2025-147A","EPOCH":"2026-03-21T17:12:29.002176","MEAN_MOTION":15.30234599,"ECCENTRICITY":0.00010214,"INCLINATION":53.1578,"RA_OF_ASC_NODE":186.8558,"ARG_OF_PERICENTER":79.1285,"MEAN_ANOMALY":280.9831,"EPHEMERIS_TYPE":0,"CLASSIFICATION_TYPE":"U","NORAD_CAT_ID":64755,"ELEMENT_SET_NO":999,"REV_AT_EPOCH":4063,"BSTAR":0.0012133577,"MEAN_MOTION_DOT":0.00035789,"MEAN_MOTION_DDOT":0},{"OBJECT_NAME":"STARLINK-34371","OBJECT_ID":"2025-147B","EPOCH":"2026-03-21T16:10:20.515584","MEAN_MOTION":15.30221388,"ECCENTRICITY":0.00011108,"INCLINATION":53.1607,"RA_OF_ASC_NODE":187.2939,"ARG_OF_PERICENTER":97.1665,"MEAN_ANOMALY":262.9462,"EPHEMERIS_TYPE":0,"CLASSIFICATION_TYPE":"U","NORAD_CAT_ID":64756,"ELEMENT_SET_NO":999,"REV_AT_EPOCH":4053,"BSTAR":0.0011204061,"MEAN_MOTION_DOT":0.00032993,"MEAN_MOTION_DDOT":0},{"OBJECT_NAME":"STARLINK-34401","OBJECT_ID":"2025-147C","EPOCH":"2026-03-21T21:07:42.185568","MEAN_MOTION":15.30152598,"ECCENTRICITY":0.00018006,"INCLINATION":53.1605,"RA_OF_ASC_NODE":186.4505,"ARG_OF_PERICENTER":87.2247,"MEAN_ANOMALY":272.896,"EPHEMERIS_TYPE":0,"CLASSIFICATION_TYPE":"U","NORAD_CAT_ID":64757,"ELEMENT_SET_NO":999,"REV_AT_EPOCH":4054,"BSTAR":-0.0015900691,"MEAN_MOTION_DOT":-0.0004709,"MEAN_MOTION_DDOT":0},{"OBJECT_NAME":"STARLINK-34593","OBJECT_ID":"2025-147D","EPOCH":"2026-03-21T15:36:54.466560","MEAN_MOTION":15.3022977,"ECCENTRICITY":9.211e-5,"INCLINATION":53.1578,"RA_OF_ASC_NODE":187.1481,"ARG_OF_PERICENTER":84.6691,"MEAN_ANOMALY":275.4415,"EPHEMERIS_TYPE":0,"CLASSIFICATION_TYPE":"U","NORAD_CAT_ID":64758,"ELEMENT_SET_NO":999,"REV_AT_EPOCH":4058,"BSTAR":0.0011519946,"MEAN_MOTION_DOT":0.00033947,"MEAN_MOTION_DDOT":0},{"OBJECT_NAME":"STARLINK-34598","OBJECT_ID":"2025-147E","EPOCH":"2026-03-21T16:52:43.333248","MEAN_MOTION":15.30228553,"ECCENTRICITY":0.00010813,"INCLINATION":53.1579,"RA_OF_ASC_NODE":186.765,"ARG_OF_PERICENTER":65.0813,"MEAN_ANOMALY":295.03,"EPHEMERIS_TYPE":0,"CLASSIFICATION_TYPE":"U","NORAD_CAT_ID":64759,"ELEMENT_SET_NO":999,"REV_AT_EPOCH":4054,"BSTAR":0.00073907302,"MEAN_MOTION_DOT":0.00021613,"MEAN_MOTION_DDOT":0},{"OBJECT_NAME":"STARLINK-34235","OBJECT_ID":"2025-147F","EPOCH":"2026-03-21T14:08:56.390784","MEAN_MOTION":15.30227584,"ECCENTRICITY":0.00011446,"INCLINATION":53.1584,"RA_OF_ASC_NODE":187.4824,"ARG_OF_PERICENTER":71.9907,"MEAN_ANOMALY":288.1218,"EPHEMERIS_TYPE":0,"CLASSIFICATION_TYPE":"U","NORAD_CAT_ID":64760,"ELEMENT_SET_NO":999,"REV_AT_EPOCH":4061,"BSTAR":0.00098957601,"MEAN_MOTION_DOT":0.00029089,"MEAN_MOTION_DDOT":0},{"OBJECT_NAME":"STARLINK-34635","OBJECT_ID":"2025-147G","EPOCH":"2026-03-21T16:54:14.289984","MEAN_MOTION":15.30241384,"ECCENTRICITY":0.0001077,"INCLINATION":53.157,"RA_OF_ASC_NODE":186.7755,"ARG_OF_PERICENTER":107.4307,"MEAN_ANOMALY":252.6812,"EPHEMERIS_TYPE":0,"CLASSIFICATION_TYPE":"U","NORAD_CAT_ID":64761,"ELEMENT_SET_NO":999,"REV_AT_EPOCH":4059,"BSTAR":0.0016910535,"MEAN_MOTION_DOT":0.00050128,"MEAN_MOTION_DDOT":0},{"OBJECT_NAME":"STARLINK-34638","OBJECT_ID":"2025-147H","EPOCH":"2026-03-21T17:24:38.098944","MEAN_MOTION":15.30233602,"ECCENTRICITY":0.00010111,"INCLINATION":53.1586,"RA_OF_ASC_NODE":186.9071,"ARG_OF_PERICENTER":99.5034,"MEAN_ANOMALY":260.6081,"EPHEMERIS_TYPE":0,"CLASSIFICATION_TYPE":"U","NORAD_CAT_ID":64762,"ELEMENT_SET_NO":999,"REV_AT_EPOCH":4059,"BSTAR":0.0014868072,"MEAN_MOTION_DOT":0.00043983,"MEAN_MOTION_DDOT":0},{"OBJECT_NAME":"STARLINK-34534","OBJECT_ID":"2025-147J","EPOCH":"2026-03-21T17:35:16.551744","MEAN_MOTION":15.30223763,"ECCENTRICITY":0.00014368,"INCLINATION":53.1584,"RA_OF_ASC_NODE":186.948,"ARG_OF_PERICENTER":101.8375,"MEAN_ANOMALY":258.2787,"EPHEMERIS_TYPE":0,"CLASSIFICATION_TYPE":"U","NORAD_CAT_ID":64763,"ELEMENT_SET_NO":999,"REV_AT_EPOCH":4059,"BSTAR":0.00054797587,"MEAN_MOTION_DOT":0.00015917,"MEAN_MOTION_DDOT":0},{"OBJECT_NAME":"STARLINK-34261","OBJECT_ID":"2025-147K","EPOCH":"2026-03-21T17:20:04.841664","MEAN_MOTION":15.30226638,"ECCENTRICITY":0.00010688,"INCLINATION":53.1586,"RA_OF_ASC_NODE":186.8829,"ARG_OF_PERICENTER":78.0575,"MEAN_ANOMALY":282.0545,"EPHEMERIS_TYPE":0,"CLASSIFICATION_TYPE":"U","NORAD_CAT_ID":64764,"ELEMENT_SET_NO":999,"REV_AT_EPOCH":4063,"BSTAR":0.00087483922,"MEAN_MOTION_DOT":0.00025662,"MEAN_MOTION_DDOT":0},{"OBJECT_NAME":"STARLINK-34566","OBJECT_ID":"2025-147L","EPOCH":"2026-03-21T13:53:44.304864","MEAN_MOTION":15.30213198,"ECCENTRICITY":9.888e-5,"INCLINATION":53.1587,"RA_OF_ASC_NODE":187.4091,"ARG_OF_PERICENTER":88.2474,"MEAN_ANOMALY":271.864,"EPHEMERIS_TYPE":0,"CLASSIFICATION_TYPE":"U","NORAD_CAT_ID":64765,"ELEMENT_SET_NO":999,"REV_AT_EPOCH":4057,"BSTAR":0.0013991702,"MEAN_MOTION_DOT":0.00041328,"MEAN_MOTION_DDOT":0},{"OBJECT_NAME":"STARLINK-34645","OBJECT_ID":"2025-147M","EPOCH":"2026-03-21T16:28:34.563360","MEAN_MOTION":15.30215248,"ECCENTRICITY":0.00012468,"INCLINATION":53.1614,"RA_OF_ASC_NODE":187.3717,"ARG_OF_PERICENTER":74.7896,"MEAN_ANOMALY":285.3243,"EPHEMERIS_TYPE":0,"CLASSIFICATION_TYPE":"U","NORAD_CAT_ID":64766,"ELEMENT_SET_NO":999,"REV_AT_EPOCH":4058,"BSTAR":0.0018998448,"MEAN_MOTION_DOT":0.00056363,"MEAN_MOTION_DDOT":0}]
